{
    "links": {
        "self": "http://www.neowsapp.com/rest/v1/neo/3837585?api_key=iIulBulltgU6a56xZRHN4H3l9WmuAYTsLGpBGhQ2"
    },
    "id": "3837585",
    "neo_reference_id": "3837585",
    "name": "(2019 AJ2)",
    "designation": "2019 AJ2",
    "nasa_jpl_url": "http://ssd.jpl.nasa.gov/sbdb.cgi?sstr=3837585",
    "absolute_magnitude_h": 21.4,
    "estimated_diameter": {
        "kilometers": {
            "estimated_diameter_min": 0.1394938229,
            "estimated_diameter_max": 0.3119176705
        },
        "meters": {
            "estimated_diameter_min": 139.4938229344,
            "estimated_diameter_max": 311.9176705226
        },
        "miles": {
            "estimated_diameter_min": 0.0866774163,
            "estimated_diameter_max": 0.1938165949
        },
        "feet": {
            "estimated_diameter_min": 457.6569140361,
            "estimated_diameter_max": 1023.3519701574
        }
    },
    "is_potentially_hazardous_asteroid": false,
    "close_approach_data": [
        {
            "close_approach_date": "2018-07-18",
            "close_approach_date_full": "2018-Jul-18 20:38",
            "epoch_date_close_approach": 1531946280000,
            "relative_velocity": {
                "kilometers_per_second": "8.4854778634",
                "kilometers_per_hour": "30547.7203081638",
                "miles_per_hour": "18981.1654325921"
            },
            "miss_distance": {
                "astronomical": "0.4770245591",
                "lunar": "185.5625534899",
                "kilometers": "71361857.979049117",
                "miles": "44342202.3729351346"
            },
            "orbiting_body": "Earth"
        },
        {
            "close_approach_date": "2018-12-03",
            "close_approach_date_full": "2018-Dec-03 15:17",
            "epoch_date_close_approach": 1543850220000,
            "relative_velocity": {
                "kilometers_per_second": "16.3349324298",
                "kilometers_per_hour": "58805.7567473441",
                "miles_per_hour": "36539.6103522594"
            },
            "miss_distance": {
                "astronomical": "0.2518989866",
                "lunar": "97.9887057874",
                "kilometers": "37683551.850518542",
                "miles": "23415473.3299861996"
            },
            "orbiting_body": "Earth"
        }
    ],
    "orbital_data": {
        "orbit_id": "2",
        "orbit_determination_date": "2019-01-09 07:23:04",
        "first_observation_date": "2019-01-02",
        "last_observation_date": "2019-01-09",
        "data_arc_in_days": 7,
        "observations_used": 19,
        "orbit_uncertainty": "9",
        "minimum_orbit_intersection": ".129309",
        "jupiter_tisserand_invariant": "4.172",
        "epoch_osculation": "2458486.5",
        "eccentricity": ".3914498132957252",
        "semi_major_axis": "1.632945125582679",
        "inclination": "17.04855592959419",
        "ascending_node_longitude": "259.1250534313075",
        "orbital_period": "762.1769541465208",
        "perihelion_distance": ".9937290610511748",
        "perihelion_argument": "118.3897275161779",
        "aphelion_distance": "2.272161190114183",
        "perihelion_time": "2458419.634943925796",
        "mean_anomaly": "31.58245608943715",
        "mean_motion": ".472331258563341",
        "equinox": "J2000",
        "orbit_class": {
            "orbit_class_type": "APO",
            "orbit_class_description": "Near-Earth asteroid orbits which cross the Earth’s orbit similar to that of 1862 Apollo",
            "orbit_class_range": "a (semi-major axis) > 1.0 AU; q (perihelion) < 1.017 AU"
        }
    },
    "is_sentry_object": false
}